[Satellite]
VERSION=1.1
NAME=GLOBALSTAR M044
NICKNAME=GLOBALSTAR M044
TLE1=1 25678U 99019C   15055.20320090 -.00000056  00000-0  38572-3 0  9998
TLE2=2 25678  51.9969 303.7213 0006186 342.8660 166.0172 11.90161622722876
